{
  "type": "FeatureCollection",
  "features": [
    {
      "type": "Feature",
      "properties": {
        "norad_id": 66603,
        "name": "STARLINK-36048",
        "group": "last-30-days",
        "lat": -35.495848954560124,
        "lon": 10.722492519546641,
        "alt_km": 447.0081302977951,
        "timestamp": "2025-12-21T16:47:53.448013+00:00",
        "meta_object_name": "STARLINK-36048",
        "meta_object_id": "2025-270R",
        "meta_epoch": "2025-12-21T11:06:03.293568",
        "meta_mean_motion": 15.40734515,
        "meta_eccentricity": 4.18e-05,
        "meta_inclination": 42.9996,
        "meta_ra_of_asc_node": 142.1528,
        "meta_arg_of_pericenter": 348.8415,
        "meta_mean_anomaly": 11.2432,
        "meta_ephemeris_type": 0,
        "meta_classification_type": "U",
        "meta_norad_cat_id": 66603,
        "meta_element_set_no": 999,
        "meta_rev_at_epoch": 559,
        "meta_bstar": 0.0011852,
        "meta_mean_motion_dot": 0.00049583,
        "meta_mean_motion_ddot": 0,
        "tle_line1": "1 66603U 25270R   25355.46253812  .00049583  00000+0  11852-2 0  9995",
        "tle_line2": "2 66603  42.9996 142.1528 0000418 348.8415  11.2432 15.40734515  5598"
      },
      "geometry": {
        "type": "Point",
        "coordinates": [
          10.722492519546641,
          -35.495848954560124
        ]
      }
    },
    {
      "type": "Feature",
      "properties": {
        "norad_id": 66604,
        "name": "STARLINK-35977",
        "group": "last-30-days",
        "lat": -42.61338152261094,
        "lon": 41.57035832015261,
        "alt_km": 446.266017343939,
        "timestamp": "2025-12-21T16:47:53.448023+00:00",
        "meta_object_name": "STARLINK-35977",
        "meta_object_id": "2025-270S",
        "meta_epoch": "2025-12-21T10:59:35.481120",
        "meta_mean_motion": 15.40740127,
        "meta_eccentricity": 0.0001438,
        "meta_inclination": 42.9997,
        "meta_ra_of_asc_node": 142.1179,
        "meta_arg_of_pericenter": 274.165,
        "meta_mean_anomaly": 85.9042,
        "meta_ephemeris_type": 0,
        "meta_classification_type": "U",
        "meta_norad_cat_id": 66604,
        "meta_element_set_no": 999,
        "meta_rev_at_epoch": 569,
        "meta_bstar": 0.0010045,
        "meta_mean_motion_dot": 0.00041942,
        "meta_mean_motion_ddot": 0,
        "tle_line1": "1 66604U 25270S   25355.45804955  .00041942  00000+0  10045-2 0  9999",
        "tle_line2": "2 66604  42.9997 142.1179 0001438 274.1650  85.9042 15.40740127  5699"
      },
      "geometry": {
        "type": "Point",
        "coordinates": [
          41.57035832015261,
          -42.61338152261094
        ]
      }
    },
    {
      "type": "Feature",
      "properties": {
        "norad_id": 66605,
        "name": "STARLINK-36052",
        "group": "last-30-days",
        "lat": -14.994351729514607,
        "lon": 123.84027288786187,
        "alt_km": 444.5958106100861,
        "timestamp": "2025-12-21T16:47:53.448033+00:00",
        "meta_object_name": "STARLINK-36052",
        "meta_object_id": "2025-270T",
        "meta_epoch": "2025-12-21T12:00:02.000160",
        "meta_mean_motion": 15.40713501,
        "meta_eccentricity": 0.0002229,
        "meta_inclination": 42.9999,
        "meta_ra_of_asc_node": 141.6968,
        "meta_arg_of_pericenter": 281.6101,
        "meta_mean_anomaly": 26.062,
        "meta_ephemeris_type": 0,
        "meta_classification_type": "U",
        "meta_norad_cat_id": 66605,
        "meta_element_set_no": 999,
        "meta_rev_at_epoch": 580,
        "meta_bstar": 0.00051161,
        "meta_mean_motion_dot": 0.00021137,
        "meta_mean_motion_ddot": 0,
        "tle_line1": "1 66605U 25270T   25355.50002315  .00021137  00000+0  51161-3 0  9995",
        "tle_line2": "2 66605  42.9999 141.6968 0002229 281.6101  26.0620 15.40713501  5802"
      },
      "geometry": {
        "type": "Point",
        "coordinates": [
          123.84027288786187,
          -14.994351729514607
        ]
      }
    },
    {
      "type": "Feature",
      "properties": {
        "norad_id": 66606,
        "name": "STARLINK-36063",
        "group": "last-30-days",
        "lat": 41.87781372930514,
        "lon": -113.95137524542585,
        "alt_km": 408.6919693869404,
        "timestamp": "2025-12-21T16:47:53.448046+00:00",
        "meta_object_name": "STARLINK-36063",
        "meta_object_id": "2025-270U",
        "meta_epoch": "2025-12-19T11:48:20.511648",
        "meta_mean_motion": 15.50662232,
        "meta_eccentricity": 0.0001816,
        "meta_inclination": 42.9987,
        "meta_ra_of_asc_node": 153.1595,
        "meta_arg_of_pericenter": 282.0515,
        "meta_mean_anomaly": 78.0141,
        "meta_ephemeris_type": 0,
        "meta_classification_type": "U",
        "meta_norad_cat_id": 66606,
        "meta_element_set_no": 999,
        "meta_rev_at_epoch": 539,
        "meta_bstar": 0.00079676,
        "meta_mean_motion_dot": 0.0004682,
        "meta_mean_motion_ddot": 0,
        "tle_line1": "1 66606U 25270U   25353.49190407  .00046820  00000+0  79676-3 0  9999",
        "tle_line2": "2 66606  42.9987 153.1595 0001816 282.0515  78.0141 15.50662232  5393"
      },
      "geometry": {
        "type": "Point",
        "coordinates": [
          -113.95137524542585,
          41.87781372930514
        ]
      }
    },
    {
      "type": "Feature",
      "properties": {
        "norad_id": 66607,
        "name": "STARLINK-35993",
        "group": "last-30-days",
        "lat": -6.727293209298468,
        "lon": 133.24225736950865,
        "alt_km": 444.4041125117283,
        "timestamp": "2025-12-21T16:47:53.448056+00:00",
        "meta_object_name": "STARLINK-35993",
        "meta_object_id": "2025-270V",
        "meta_epoch": "2025-12-21T12:00:02.000160",
        "meta_mean_motion": 15.40718167,
        "meta_eccentricity": 0.0001822,
        "meta_inclination": 42.9998,
        "meta_ra_of_asc_node": 141.6667,
        "meta_arg_of_pericenter": 266.936,
        "meta_mean_anomaly": 53.1468,
        "meta_ephemeris_type": 0,
        "meta_classification_type": "U",
        "meta_norad_cat_id": 66607,
        "meta_element_set_no": 999,
        "meta_rev_at_epoch": 571,
        "meta_bstar": 0.00032595,
        "meta_mean_motion_dot": 0.00013344,
        "meta_mean_motion_ddot": 0,
        "tle_line1": "1 66607U 25270V   25355.50002315  .00013344  00000+0  32595-3 0  9998",
        "tle_line2": "2 66607  42.9998 141.6667 0001822 266.9360  53.1468 15.40718167  5714"
      },
      "geometry": {
        "type": "Point",
        "coordinates": [
          133.24225736950865,
          -6.727293209298468
        ]
      }
    },
    {
      "type": "Feature",
      "properties": {
        "norad_id": 66608,
        "name": "STARLINK-36036",
        "group": "last-30-days",
        "lat": 41.557117857224014,
        "lon": -111.82619648362845,
        "alt_km": 408.55468840926005,
        "timestamp": "2025-12-21T16:47:53.448066+00:00",
        "meta_object_name": "STARLINK-36036",
        "meta_object_id": "2025-270W",
        "meta_epoch": "2025-12-19T11:47:53.026080",
        "meta_mean_motion": 15.50612484,
        "meta_eccentricity": 0.0001538,
        "meta_inclination": 42.999,
        "meta_ra_of_asc_node": 153.1562,
        "meta_arg_of_pericenter": 266.4602,
        "meta_mean_anomaly": 93.6082,
        "meta_ephemeris_type": 0,
        "meta_classification_type": "U",
        "meta_norad_cat_id": 66608,
        "meta_element_set_no": 999,
        "meta_rev_at_epoch": 523,
        "meta_bstar": 0.0010303,
        "meta_mean_motion_dot": 0.00060643,
        "meta_mean_motion_ddot": 0,
        "tle_line1": "1 66608U 25270W   25353.49158595  .00060643  00000+0  10303-2 0  9993",
        "tle_line2": "2 66608  42.9990 153.1562 0001538 266.4602  93.6082 15.50612484  5231"
      },
      "geometry": {
        "type": "Point",
        "coordinates": [
          -111.82619648362845,
          41.557117857224014
        ]
      }
    },
    {
      "type": "Feature",
      "properties": {
        "norad_id": 66609,
        "name": "STARLINK-36034",
        "group": "last-30-days",
        "lat": 41.588341059816656,
        "lon": -112.01758010802848,
        "alt_km": 405.982213238598,
        "timestamp": "2025-12-21T16:47:53.448077+00:00",
        "meta_object_name": "STARLINK-36034",
        "meta_object_id": "2025-270X",
        "meta_epoch": "2025-12-20T17:09:50.095296",
        "meta_mean_motion": 15.50362019,
        "meta_eccentricity": 0.00048554,
        "meta_inclination": 42.9992,
        "meta_ra_of_asc_node": 145.9955,
        "meta_arg_of_pericenter": 131.0653,
        "meta_mean_anomaly": 229.0628,
        "meta_ephemeris_type": 0,
        "meta_classification_type": "U",
        "meta_norad_cat_id": 66609,
        "meta_element_set_no": 999,
        "meta_rev_at_epoch": 542,
        "meta_bstar": 0.0011127835,
        "meta_mean_motion_dot": 0.00065002,
        "meta_mean_motion_ddot": 0,
        "tle_line1": "1 66609U 25270X   25354.71516314  .00065002  00000+0  11128-2 0  9997",
        "tle_line2": "2 66609  42.9992 145.9955 0004855 131.0653 229.0628 15.50362019  5425"
      },
      "geometry": {
        "type": "Point",
        "coordinates": [
          -112.01758010802848,
          41.588341059816656
        ]
      }
    }
  ]
}